NORAD_CAT_ID,OBJECT_NAME,OBJECT_TYPE,EPOCH,MEAN_MOTION,ECCENTRICITY,INCLINATION,RA_OF_ASC_NODE,ARG_OF_PERICENTER,MEAN_ANOMALY,BSTAR,MEAN_MOTION_DOT,MEAN_MOTION_DDOT,TLE_LINE0,TLE_LINE1,TLE_LINE2,SEMIMAJOR_AXIS,PERIOD,APOGEE,PERIGEE,DECAYED
52635.0,STARLINK-3978,PAYLOAD,2023-03-29 01:54:58,15.0886661,0.0001229,53.2178,52.2111,92.482,267.6313,0.0011795,0.00018547,0.0,0 STARLINK-3978,1 52635U 22052AP  23088.07984160  .00018547  00000-0  11795-2 0  9998,2 52635  53.2178  52.2111 0001229  92.4820 267.6313 15.08866610 48977,6917.799,95.436,540.514,538.814,0.0
52635.0,STARLINK-3978,PAYLOAD,2023-03-29 05:05:44,15.08884806,0.0001181,53.2175,51.6167,96.2893,263.8233,0.0017206,0.00027235,0.0,0 STARLINK-3978,1 52635U 22052AP  23088.21231654  .00027235  00000-0  17206-2 0  9994,2 52635  53.2175  51.6167 0001181  96.2893 263.8233 15.08884806 48995,6917.743,95.435,540.425,538.791,0.0
52635.0,STARLINK-3978,PAYLOAD,2023-03-30 01:45:45,15.08846184,9.04e-05,53.2171,47.7509,81.0106,279.0989,0.0016238,0.00025654,0.0,0 STARLINK-3978,1 52635U 22052AP  23089.07344174  .00025654  00000-0  16238-2 0  9998,2 52635  53.2171  47.7509 0000904  81.0106 279.0989 15.08846184 49128,6917.861,95.437,540.352,539.101,0.0
52635.0,STARLINK-3978,PAYLOAD,2023-03-30 09:42:40,15.08859055,0.0001208,53.2173,46.2638,72.9029,287.2096,0.0016089,0.00025424,0.0,0 STARLINK-3978,1 52635U 22052AP  23089.40464026  .00025424  00000-0  16089-2 0  9993,2 52635  53.2173  46.2638 0001208  72.9029 287.2096 15.08859055 48803,6917.822,95.436,540.523,538.851,0.0
52635.0,STARLINK-3978,PAYLOAD,2023-03-31 03:11:55,15.0884711,0.0001296,53.2176,42.9929,86.7009,273.4131,0.0014178,0.00022353,0.0,0 STARLINK-3978,1 52635U 22052AP  23090.13328476  .00022353  00000-0  14178-2 0  9998,2 52635  53.2176  42.9929 0001296  86.7009 273.4131 15.08847110 49289,6917.859,95.437,540.62,538.827,0.0
52635.0,STARLINK-3978,PAYLOAD,2023-04-01 03:02:42,15.08850278,0.0001151,53.2179,38.5328,109.0754,251.0363,0.00082066,0.00012801,0.0,0 STARLINK-3978,1 52635U 22052AP  23091.12688341  .00012801  00000-0  82066-3 0  9997,2 52635  53.2179  38.5328 0001151 109.0754 251.0363 15.08850278 49437,6917.849,95.437,540.51,538.918,0.0
52635.0,STARLINK-3978,PAYLOAD,2023-04-02 02:53:30,15.08840798,0.0001118,53.2189,34.074,98.7993,261.3126,0.00056179,8.664e-05,0.0,0 STARLINK-3978,1 52635U 22052AP  23092.12049126  .00008664  00000-0  56179-3 0  9998,2 52635  53.2189  34.0740 0001118  98.7993 261.3126 15.08840798 49582,6917.878,95.438,540.516,538.97,0.0
52635.0,STARLINK-3978,PAYLOAD,2023-04-02 06:04:16,15.08845362,0.000114,53.2189,33.4791,98.5574,261.5547,0.00077459,0.00012063,0.0,0 STARLINK-3978,1 52635U 22052AP  23092.25297120  .00012063  00000-0  77459-3 0  9993,2 52635  53.2189  33.4791 0001140  98.5574 261.5547 15.08845362 49232,6917.864,95.437,540.518,538.94,0.0
52635.0,STARLINK-3978,PAYLOAD,2023-04-03 05:55:03,15.08863267,0.0001258,53.2192,29.0191,112.998,247.1145,0.0010976,0.00017235,0.0,0 STARLINK-3978,1 52635U 22052AP  23093.24656476  .00017235  00000-0  10976-2 0  9992,2 52635  53.2192  29.0191 0001258 112.9980 247.1145 15.08863267 49758,6917.809,95.436,540.545,538.804,0.0
52635.0,STARLINK-3978,PAYLOAD,2023-04-04 02:35:03,15.0885461,0.0001323,53.2189,25.155,130.8515,229.2592,0.00035669,5.396e-05,0.0,0 STARLINK-3978,1 52635U 22052AP  23094.10768229  .00005396  00000-0  35669-3 0  9990,2 52635  53.2189  25.1550 0001323 130.8515 229.2592 15.08854610 49889,6917.836,95.437,540.616,538.786,0.0
52635.0,STARLINK-3978,PAYLOAD,2023-04-04 05:45:49,15.08870702,0.0001224,53.2184,24.5576,120.5185,239.5928,0.00089971,0.00014072,0.0,0 STARLINK-3978,1 52635U 22052AP  23094.24015864  .00014072  00000-0  89971-3 0  9991,2 52635  53.2184  24.5576 0001224 120.5185 239.5928 15.08870702 49904,6917.787,95.436,540.498,538.805,0.0
52635.0,STARLINK-3978,PAYLOAD,2023-04-05 02:25:51,15.08833845,0.0001129,53.2166,20.687,136.3715,223.7366,0.0002589,3.834e-05,0.0,0 STARLINK-3978,1 52635U 22052AP  23095.10128801  .00003834  00000-0  25890-3 0  9997,2 52635  53.2166  20.6870 0001129 136.3715 223.7366 15.08833845 50030,6917.899,95.438,540.545,538.983,0.0
52635.0,STARLINK-3978,PAYLOAD,2023-04-05 05:36:37,15.08837794,0.0001056,53.2176,20.0959,122.2785,237.831,0.000357,5.398e-05,0.0,0 STARLINK-3978,1 52635U 22052AP  23095.23376851  .00005398  00000-0  35700-3 0  9999,2 52635  53.2176  20.0959 0001056 122.2785 237.8310 15.08837794 49684,6917.887,95.438,540.483,539.022,0.0
52635.0,STARLINK-3978,PAYLOAD,2023-04-06 02:16:38,15.08843792,0.0001119,53.2171,16.2296,121.5218,238.5884,0.00059905,9.26e-05,0.0,0 STARLINK-3978,1 52635U 22052AP  23096.09489261  .00009260  00000-0  59905-3 0  9999,2 52635  53.2171  16.2296 0001119 121.5218 238.5884 15.08843792 49817,6917.869,95.437,540.508,538.96,0.0
52635.0,STARLINK-3978,PAYLOAD,2023-04-07 00:32:02,15.08843132,9.91e-05,53.2179,12.0681,101.6587,258.4517,0.00035783,5.412e-05,0.0,0 STARLINK-3978,1 52635U 22052AP  23097.02225679  .00005412  00000-0  35783-3 0  9997,2 52635  53.2179  12.0681 0000991 101.6587 258.4517 15.08843132 50322,6917.871,95.437,540.421,539.05,0.0
52635.0,STARLINK-3978,PAYLOAD,2023-04-07 03:42:49,15.08849335,0.0001007,53.2176,11.4729,97.5684,262.5423,0.00058145,8.98e-05,0.0,0 STARLINK-3978,1 52635U 22052AP  23097.15473508  .00008980  00000-0  58145-3 0  9997,2 52635  53.2176  11.4729 0001007  97.5684 262.5423 15.08849335 49977,6917.852,95.437,540.413,539.02,0.0
52635.0,STARLINK-3978,PAYLOAD,2023-04-08 00:22:49,15.08846143,9.72e-05,53.2173,7.6079,81.4265,278.6837,0.00049627,7.62e-05,0.0,0 STARLINK-3978,1 52635U 22052AP  23098.01585559  .00007620  00000-0  49627-3 0  9998,2 52635  53.2173   7.6079 0000972  81.4265 278.6837 15.08846143 50474,6917.862,95.437,540.399,539.054,0.0
52635.0,STARLINK-3978,PAYLOAD,2023-04-08 03:33:36,15.08853137,0.0001049,53.2175,7.0133,82.833,277.2781,0.00072719,0.00011308,0.0,0 STARLINK-3978,1 52635U 22052AP  23098.14833439  .00011308  00000-0  72719-3 0  9991,2 52635  53.2175   7.0133 0001049  82.8330 277.2781 15.08853137 50121,6917.84,95.437,540.431,538.98,0.0
52635.0,STARLINK-3978,PAYLOAD,2023-04-09 00:13:36,15.08849763,0.0001189,53.2181,3.1477,77.7992,282.3133,0.00041441,6.315e-05,0.0,0 STARLINK-3978,1 52635U 22052AP  23099.00945329  .00006315  00000-0  41441-3 0  9999,2 52635  53.2181   3.1477 0001189  77.7992 282.3133 15.08849763 50621,6917.851,95.437,540.538,538.893,0.0
52635.0,STARLINK-3978,PAYLOAD,2023-04-09 04:59:45,15.08858414,0.00012,53.2183,2.2549,89.7301,270.3829,0.00042098,6.422e-05,0.0,0 STARLINK-3978,1 52635U 22052AP  23099.20816844  .00006422  00000-0  42098-3 0  9998,2 52635  53.2183   2.2549 0001200  89.7301 270.3829 15.08858414 50288,6917.824,95.436,540.519,538.859,0.0
52635.0,STARLINK-3978,PAYLOAD,2023-04-10 03:15:09,15.0884511,0.0001104,53.2174,358.0923,96.676,263.4357,0.00014787,2.067e-05,0.0,0 STARLINK-3978,1 52635U 22052AP  23100.13553107  .00002067  00000-0  14787-3 0  9998,2 52635  53.2174 358.0923 0001104  96.6760 263.4357 15.08845110 50799,6917.865,95.437,540.494,538.966,0.0
52635.0,STARLINK-3978,PAYLOAD,2023-04-11 01:30:32,15.0888027,9.56e-05,53.2171,353.9298,96.6854,263.4247,0.0010522,0.00016516,0.0,0 STARLINK-3978,1 52635U 22052AP  23101.06288104  .00016516  00000-0  10522-2 0  9999,2 52635  53.2171 353.9298 0000956  96.6854 263.4247 15.08880270 50933,6917.757,95.435,540.284,538.961,0.0
52635.0,STARLINK-3978,PAYLOAD,2023-04-12 01:21:21,15.08831106,8.71e-05,53.2163,349.4683,87.4443,272.6649,-8.1874e-05,-1.59e-05,0.0,0 STARLINK-3978,1 52635U 22052AP  23102.05649787 -.00001590  00000-0 -81874-4 0  9995,2 52635  53.2163 349.4683 0000871  87.4443 272.6649 15.08831106 51089,6917.908,95.438,540.375,539.17,0.0
52635.0,STARLINK-3978,PAYLOAD,2023-04-13 01:12:08,15.08844172,8.31e-05,53.2163,345.0076,78.5514,281.5571,0.00028378,4.232e-05,0.0,0 STARLINK-3978,1 52635U 22052AP  23103.05009745  .00004232  00000-0  28378-3 0  9993,2 52635  53.2163 345.0076 0000831  78.5514 281.5571 15.08844172 51230,6917.868,95.437,540.308,539.158,0.0
52635.0,STARLINK-3978,PAYLOAD,2023-04-13 02:47:31,15.08846973,8.19e-05,53.2163,344.7095,80.6862,279.4223,0.00037159,5.632e-05,0.0,0 STARLINK-3978,1 52635U 22052AP  23103.11633672  .00005632  00000-0  37159-3 0  9994,2 52635  53.2163 344.7095 0000819  80.6862 279.4223 15.08846973 50873,6917.859,95.437,540.291,539.158,0.0
52635.0,STARLINK-3978,PAYLOAD,2023-04-14 01:02:55,15.08851312,7.87e-05,53.2165,340.5464,96.8025,263.3056,0.00040905,6.23e-05,0.0,0 STARLINK-3978,1 52635U 22052AP  23104.04369593  .00006230  00000-0  40905-3 0  9993,2 52635  53.2165 340.5464 0000787  96.8025 263.3056 15.08851312 51019,6917.846,95.437,540.255,539.166,0.0
52635.0,STARLINK-3978,PAYLOAD,2023-04-14 15:21:23,15.08843805,8.84e-05,53.2167,337.871,90.2559,269.8534,0.00022267,3.258e-05,0.0,0 STARLINK-3978,1 52635U 22052AP  23104.63985747  .00003258  00000-0  22267-3 0  9991,2 52635  53.2167 337.8710 0000884  90.2559 269.8534 15.08843805 51472,6917.869,95.437,540.345,539.122,0.0
52635.0,STARLINK-3978,PAYLOAD,2023-04-15 00:53:42,15.08851352,9.18e-05,53.2165,336.0878,82.7779,277.3317,0.0006343,9.825e-05,0.0,0 STARLINK-3978,1 52635U 22052AP  23105.03729629  .00009825  00000-0  63430-3 0  9994,2 52635  53.2165 336.0878 0000918  82.7779 277.3317 15.08851352 51169,6917.846,95.437,540.346,539.076,0.0
52635.0,STARLINK-3978,PAYLOAD,2023-04-15 18:22:57,15.08835895,0.0001418,53.2158,332.8168,79.95,280.1652,0.00055455,8.548e-05,0.0,0 STARLINK-3978,1 52635U 22052AP  23105.76594430  .00008548  00000-0  55455-3 0  9993,2 52635  53.2158 332.8168 0001418  79.9500 280.1652 15.08835895 51644,6917.893,95.438,540.739,538.777,0.0
52635.0,STARLINK-3978,PAYLOAD,2023-04-15 21:33:43,15.08842652,9.1e-05,53.2164,332.2213,76.8113,283.2981,0.00048458,7.433e-05,0.0,0 STARLINK-3978,1 52635U 22052AP  23105.89842266  .00007433  00000-0  48458-3 0  9997,2 52635  53.2164 332.2213 0000910  76.8113 283.2981 15.08842652 51297,6917.872,95.437,540.367,539.108,0.0
